#dP2023  8  3 12  0  0.00000000      96 __u+U ITR00 EXT  IAC
## 2273 388800.00000000   900.00000000 60159 0.5000000000000
+  119   C06C07C08C09C10C11C12C13C14C16C19C20C21C22C23C24C25
+        C26C27C28C29C30C32C33C34C35C36C37C38C39C40C41C42C43
+        C44C45C46E02E03E04E05E07E08E09E10E11E12E13E14E15E18
+        E19E21E24E25E26E27E30E31E33E34E36G01G02G03G04G05G06
+        G07G08G09G10G11G12G13G14G15G16G17G18G19G20G21G22G23
+        G24G25G26G27G28G29G30G31G32J02J03J04R01R02R03R04R05
+        R07R08R09R11R12R13R14R15R16R17R18R19R20R21R22R24R25
++         8 10  9  8  9  9  8  8  9  9 10  9  8  9  7  8  8
++         8  8  8  9 10 10  9  6  8  8  8 11 10 11  8  6  7
++         7  8  8  6  8  6  9  6  8  8  7  6  6  9  9  7  6
++         6  7  6  6  7  7  5  7  5  7  7  7  8  6  6  6  6
++         6  7  6  6  6  8  8  7  7  6  7  6  7  6  8 10  6
++         7  7  5  7  7  7  7  6  7  8  8 12 10  8  8  7  9
++         8  7  9  8  7  8  8  6  6  6  8  9  8  8  9  8  7
%c M  cc GPS ccc cccc cccc cccc cccc ccccc ccccc ccccc ccccc
%c cc cc ccc ccc cccc cccc cccc cccc ccccc ccccc ccccc ccccc
%f  0.0000000  0.000000000  0.00000000000  0.000000000000000
%f  0.0000000  0.000000000  0.00000000000  0.000000000000000
%i    0    0    0    0      0      0      0      0         0
%i    0    0    0    0      0      0      0      0         0
/* IAC                                ULTRA-RAPID PREDICTION
/* S/V CLOCKS ARE ALIGNED TO GNSS TIME                      
/* G:C1WC2W R:C1PC2P E:C1XC5X C:C2IC6I J:C1CC2S             
/* PCV:IGS20_2247 OL/AL:FES2004  NONE     YN ORB:CoN CLK:CoN
*  2023 08 03 22 15  0.00000000
PC06  -2970.262880  34976.641448 -23131.961882    780.199754
PC07 -11880.979582  26446.604689  30641.572036    125.042543
PC08 -17663.570875  36795.114415 -11008.603942    403.891380
PC09   3609.935261  38867.520035 -14748.404929    336.213699
PC10  -3984.324762  27409.689434  32067.449860   -134.458632
PC11  13544.352120  -7420.120887 -23180.796537    760.685783
PC12  20718.712804  11226.285243 -14927.934759    841.347795
PC13 -11943.913321  37069.147107 -16362.985068    327.815412
PC14  23999.495001 -10267.485208   9960.096246    167.152407
PC16  -3777.250585  33763.555701 -24507.509975    -20.682733
PC19 -16468.947669  14253.644612 -17413.789475   -952.508128
PC20 -27197.254498   5594.003597  -2603.283408    388.029844
PC21  22366.637319   7226.266497 -15053.799725   -943.965034
PC22   4353.540064  15188.583072 -23011.327697   -367.048626
PC23   1637.002912 -25512.291981 -11174.306341   -918.148430
PC24  18336.899364  -7347.228744  19698.869356    245.172750
PC25  13107.459073 -24063.577870   5222.199677    181.885533
PC26  12601.845349  11560.494183  22045.866375   -158.129102
PC27 -20175.192718 -17718.785914   7586.950015    179.244219
PC28 -10901.574498 -24186.182098  -8641.330133    133.897836
PC29  -5964.072234  16540.565730  21663.695379    156.126623
PC30 -19271.070820  -1205.173663  20143.362871     -3.002099
PC32 -22314.806837  -7143.359687  15155.930996   -534.341108
PC33  16508.649206 -14354.827315  17334.352080   -928.435535
PC34  18675.908808   -229.739987 -20743.576702    229.313404
PC35  11513.044869  23788.021495   8902.953516    575.137061
PC36 -14041.721205  23374.305999  -5921.276905   -294.743031
PC37 -11803.618635 -12742.223266 -21818.721977   -801.805950
PC38 -21338.483284  36374.650650  -2588.402279     95.872225
PC39  -7265.426556  29523.053036 -29059.291396     -4.126960
PC40 -17916.436272  19693.511837  32637.130177    -31.652543
PC41  -3548.965151 -15383.204173  23057.813687   -893.032162
PC42  27481.515850  -4789.005191   1240.025134   -589.567355
PC43   6833.475822 -15969.586457 -21855.391330     33.690765
PC44  20829.269946  17007.373184  -7427.574199    189.071121
PC45  -1318.012212  25323.952279  11679.683861     -9.753167
PC46 -18344.221309   8873.019151 -19076.795162    -73.844224
PE02 -24754.939093   4388.134039 -15630.170679     53.580306
PE03 -27615.056894  -5381.415803  -9180.406922    -42.459844
PE04  17054.204948  -9440.529336  22283.485177   -181.391510
PE05 -22149.204992 -17221.546351   9431.232465      5.709150
PE07   3384.150842  18859.276665 -22560.487945    -64.767562
PE08 -17331.726684   9068.396964 -22212.511627   -124.739504
PE09  -3259.857274 -18690.291876  22718.063325   -107.819127
PE10   5852.303160 -25819.172042 -13241.836884   -553.427119
PE11   -808.111719 -29405.976722  -3334.012036   2643.848566
PE12  11194.394737 -18627.206182 -20111.988351   -644.056223
PE13    412.391994  29321.011379   4034.962764    -19.386791
PE14  -4640.186131  15701.855997  19049.251416    301.084614
PE15 -11275.841480  18280.418784  20366.856364    -42.284425
PE18  15611.958645 -13688.094176 -23403.515031    372.260039
PE19  27819.066857   7426.932227   6873.358540  -1929.698569
PE21  12737.781412  11353.918347  24191.746295   -544.567469
PE24   7934.279571 -21493.920589 -18739.820567   -246.019423
PE25 -12410.698658 -11613.370074 -24222.757060   -609.297671
PE26  12088.113128  22513.051106 -14950.962151    182.337808
PE27  -7268.310862  21376.515476  19151.052650   -115.640174
PE30 -23064.046369  18400.927637   2426.838226   -389.131669
PE31  22777.116634 -18685.249934  -2866.905575     -1.855908
PE33  16207.446298   4060.900269 -24440.382515     -1.916841
PE34 -16204.439568  -3248.269537  24543.020689    -59.618120
PE36 -11688.895158 -23054.638853  14418.354819    -95.737618
PG01 -13409.930770   7968.881581  21090.051391    170.016396
PG02 -15308.400087   1059.576094  22187.054283   -569.302112
PG03 -23028.634349  12456.705052   3936.770095   -203.770740
PG04 -19725.961842   3380.662814 -17510.337225    114.965602
PG05  20296.762232   -260.856588 -17368.728312   -137.427390
PG06   5489.215391  25256.976864  -5841.288374    570.845906
PG07  -6656.754467  22459.521841 -11575.192869    106.042157
PG08 -24973.106667  -4810.286153   8258.985539   -135.430094
PG09 -11327.924993  11318.127761 -21273.484582    -95.748289
PG10   2375.887590 -17680.939863  19746.623202    -47.819996
PG11  12500.868072  15605.339904 -17495.119637   -304.804196
PG12  24069.502865  -8445.735935   6977.602347   -408.640014
PG13  22908.342761  13461.979674   2186.029375    555.622894
PG14  -6036.456941  18874.727222  17626.629891    142.988376
PG15  25170.284626   1546.296938   8257.327479     64.248435
PG16 -17787.800676  -5487.347738 -19417.592056   -472.802737
PG17   5363.746936  17968.090937  19197.983714    722.187286
PG18   5358.326666 -23977.386609  -9868.301768   -369.750243
PG19  13200.030727  18862.573644  13316.793797    352.823180
PG20  13266.049392   8444.563567 -21349.762133    419.140820
PG21 -15845.319908  -2775.277029  21780.075650    151.282601
PG22 -15696.736996 -18486.464293  11464.546803    522.085059
PG23  14144.241083 -19486.817757  11024.804100     50.785532
PG24  15281.471653  -3262.985364  21099.996760   -278.739315
PG25  19110.309034 -17654.369269  -4897.319430    460.086715
PG26  -8700.737177 -13316.583406 -21374.641083    234.272461
PG27 -23084.371713 -13299.964991  -3014.962460    -15.555632
PG28  -5499.194239 -25709.011339  -3808.605043     79.012394
PG29  12782.090205  -9329.193010 -21398.808862   -607.053233
PG30   -347.933400  26244.348674  -2881.983255   -499.287145
PG31 -10898.554338 -19723.565220 -13892.751323   -221.229776
PG32  -9958.683647 -17942.845512  17153.765784   -533.956486
PJ02 -31066.842787  28186.869495   9259.185283     -2.107654
PJ03 -25477.940774  24904.440187  27666.488504     -0.634372
PJ04 -30511.733806  23201.006289 -12242.103441     98.227396
PR01 -15653.482179   8450.005981 -18278.488881     62.764869
PR02   3404.118109  10849.441340 -22785.564616    -22.554064
PR03  20174.924396   7336.866046 -13687.347908     82.619410
PR04  25357.738014     39.819348   2727.622040    197.268702
PR05  16865.519933  -7304.438188  17684.562695    116.779407
PR07 -20765.352992  -7100.784811  13082.239450     61.647005
PR08 -25366.691052    163.629598  -2780.879436    -71.942395
PR09   4570.778934 -20992.692271 -13792.920261    134.777922
PR11 -15068.976366   6907.154294 -19365.352564   -122.212850
PR12 -14741.446503  20567.552238  -3232.124063     29.804326
PR13  -6266.216305  21492.364269  12217.445090    -37.775864
PR14   7435.831779   8963.570179  22710.137802     25.060494
PR15  15582.275847  -7943.273078  18596.899427     87.315344
PR16  14708.658541 -20550.040286   3625.540168     17.354661
PR17  14389.658671  19092.520068  -8956.633768      5.689711
PR18  13311.363614   5441.110699 -21046.076591     94.968846
PR19   6703.757469  -9512.711680 -22701.818079   -242.189909
PR20  -5981.039720 -22934.467001  -9469.588312    -97.684111
PR21 -14403.351799 -18461.728347  10072.379769    -27.656428
PR22 -13243.161233  -4756.484023  21300.573767    106.946948
PR24   6978.997825  22907.307211   8833.708594    -19.096461
PR25 -13606.732675 -19658.393064   8859.150197     44.350272
EOF
